{"contract_version":"p0-map-context/1.0.0","crs_contract":{"axis_order":"longitude_latitude","coordinate_reference_system":"EPSG:4326","standard":"RFC_7946"},"data_version":"m2b-development-fixture-1","features":[],"layer_definitions":[{"caveat":"Current research-only display geometry.","default_visible":true,"evidence_role":"RESEARCH_ONLY_EVIDENCE","layer_id":"rna_current_project_display","public_label":"Current RNA project display"},{"caveat":"Context only; not benefit evidence.","default_visible":false,"evidence_role":"CONTEXTUAL_EVIDENCE","layer_id":"fema_current_hazard_context","public_label":"Current FEMA hazard context"},{"caveat":"Dated location context only.","default_visible":false,"evidence_role":"CONTEXTUAL_EVIDENCE","layer_id":"eaz_2021_context","public_label":"EAZ 2021 context"}],"release_tier":"FIXTURE","source_crs_and_transformations":[{"layer_id":"rna_current_project_display","limitations":["Development fixture; not reviewed display geometry."],"source_crs":"Source-specific governed CRS","transformation_tool":"Development-fixture serializer","transformation_version":"development-fixture-geometry/1","validation":"Finite RFC 7946 coordinates validated."},{"layer_id":"fema_current_hazard_context","limitations":["Development fixture; not reviewed display geometry."],"source_crs":"Source-specific governed CRS","transformation_tool":"Development-fixture serializer","transformation_version":"development-fixture-geometry/1","validation":"Finite RFC 7946 coordinates validated."},{"layer_id":"eaz_2021_context","limitations":["Development fixture; not reviewed display geometry."],"source_crs":"Source-specific governed CRS","transformation_tool":"Development-fixture serializer","transformation_version":"development-fixture-geometry/1","validation":"Finite RFC 7946 coordinates validated."}],"type":"FeatureCollection"}
